{"type": "FeatureCollection", "features": [ {"type": "Feature", "properties": {"norad_id": 34400, "name": "COSMOS 2251 DEB", "group": "cosmos-2251-debris", "lat": -0.6360002030281162, "lon": -141.26778065747536, "alt_km": 419.84003587924053, "timestamp": "2025-12-05T20:43:02.447784+00:00", "meta": {"OBJECT_NAME": "COSMOS 2251 DEB", "OBJECT_ID": "1993-036QR", "EPOCH": "2025-12-04T20:41:48.818112", "MEAN_MOTION": 15.49238824, "ECCENTRICITY": 0.0007335, "INCLINATION": 73.9684, "RA_OF_ASC_NODE": 40.7515, "ARG_OF_PERICENTER": 270.3968, "MEAN_ANOMALY": 89.6404, "EPHEMERIS_TYPE": 0, "CLASSIFICATION_TYPE": "U", "NORAD_CAT_ID": 34400, "ELEMENT_SET_NO": 999, "REV_AT_EPOCH": 89852, "BSTAR": 0.0052697, "MEAN_MOTION_DOT": 0.00299185, "MEAN_MOTION_DDOT": 0}, "tle": {"line1": "1 34400U 93036QR  25338.86237058  .00299185  00000+0  52697-2 0  9996", "line2": "2 34400  73.9684  40.7515 0007335 270.3968  89.6404 15.49238824898524"}}, "geometry": {"type": "Point", "coordinates": [-141.26778065747536, -0.6360002030281162]}}, {"type": "Feature", "properties": {"norad_id": 34409, "name": "COSMOS 2251 DEB", "group": "cosmos-2251-debris", "lat": -56.3523421050387, "lon": 165.3223503723634, "alt_km": 757.7725224371197, "timestamp": "2025-12-05T20:43:02.447793+00:00", "meta": {"OBJECT_NAME": "COSMOS 2251 DEB", "OBJECT_ID": "1993-036RA", "EPOCH": "2025-12-05T01:50:04.771104", "MEAN_MOTION": 14.579981, "ECCENTRICITY": 0.00795058, "INCLINATION": 74.0627, "RA_OF_ASC_NODE": 321.392, "ARG_OF_PERICENTER": 37.8076, "MEAN_ANOMALY": 34.5259, "EPHEMERIS_TYPE": 0, "CLASSIFICATION_TYPE": "U", "NORAD_CAT_ID": 34409, "ELEMENT_SET_NO": 999, "REV_AT_EPOCH": 89081, "BSTAR": 0.00043801789, "MEAN_MOTION_DOT": 2.072e-05, "MEAN_MOTION_DDOT": 0}, "tle": {"line1": "1 34409U 93036RA  25339.07644411  .00002072  00000+0  43802-3 0  9990", "line2": "2 34409  74.0627 321.3920 0079505  37.8076  34.5259 14.57998100890813"}}, "geometry": {"type": "Point", "coordinates": [165.3223503723634, -56.3523421050387]}}, {"type": "Feature", "properties": {"norad_id": 34410, "name": "COSMOS 2251 DEB", "group": "cosmos-2251-debris", "lat": -42.46807805133679, "lon": 111.87882974305099, "alt_km": 522.5419041088717, "timestamp": "2025-12-05T20:43:02.447804+00:00", "meta": {"OBJECT_NAME": "COSMOS 2251 DEB", "OBJECT_ID": "1993-036RB", "EPOCH": "2025-12-03T22:08:19.253184", "MEAN_MOTION": 15.17562106, "ECCENTRICITY": 0.0020723, "INCLINATION": 73.7392, "RA_OF_ASC_NODE": 280.509, "ARG_OF_PERICENTER": 121.9342, "MEAN_ANOMALY": 302.742, "EPHEMERIS_TYPE": 0, "CLASSIFICATION_TYPE": "U", "NORAD_CAT_ID": 34410, "ELEMENT_SET_NO": 999, "REV_AT_EPOCH": 89640, "BSTAR": 0.004684, "MEAN_MOTION_DOT": 0.00095812, "MEAN_MOTION_DDOT": 0}, "tle": {"line1": "1 34410U 93036RB  25337.92244506  .00095812  00000+0  46840-2 0  9993", "line2": "2 34410  73.7392 280.5090 0020723 121.9342 302.7420 15.17562106896404"}}, "geometry": {"type": "Point", "coordinates": [111.87882974305099, -42.46807805133679]}}, {"type": "Feature", "properties": {"norad_id": 34412, "name": "COSMOS 2251 DEB", "group": "cosmos-2251-debris", "lat": -1.747987825799811, "lon": -22.962563513431707, "alt_km": 703.6516395077169, "timestamp": "2025-12-05T20:43:02.447814+00:00", "meta": {"OBJECT_NAME": "COSMOS 2251 DEB", "OBJECT_ID": "1993-036RD", "EPOCH": "2025-12-05T00:48:53.156448", "MEAN_MOTION": 14.47016889, "ECCENTRICITY": 0.01870861, "INCLINATION": 73.9481, "RA_OF_ASC_NODE": 339.0994, "ARG_OF_PERICENTER": 76.0298, "MEAN_ANOMALY": 286.1585, "EPHEMERIS_TYPE": 0, "CLASSIFICATION_TYPE": "U", "NORAD_CAT_ID": 34412, "ELEMENT_SET_NO": 999, "REV_AT_EPOCH": 87539, "BSTAR": 0.0018666483, "MEAN_MOTION_DOT": 8.438e-05, "MEAN_MOTION_DDOT": 0}, "tle": {"line1": "1 34412U 93036RD  25339.03394857  .00008438  00000+0  18666-2 0  9997", "line2": "2 34412  73.9481 339.0994 0187086  76.0298 286.1585 14.47016889875392"}}, "geometry": {"type": "Point", "coordinates": [-22.962563513431707, -1.747987825799811]}}, {"type": "Feature", "properties": {"norad_id": 34413, "name": "COSMOS 2251 DEB", "group": "cosmos-2251-debris", "lat": -35.712335037041164, "lon": 109.2445062351587, "alt_km": 848.9112938180851, "timestamp": "2025-12-05T20:43:02.447824+00:00", "meta": {"OBJECT_NAME": "COSMOS 2251 DEB", "OBJECT_ID": "1993-036RE", "EPOCH": "2025-12-05T06:58:10.706880", "MEAN_MOTION": 14.2899816, "ECCENTRICITY": 0.00907343, "INCLINATION": 74.0319, "RA_OF_ASC_NODE": 278.4055, "ARG_OF_PERICENTER": 356.2477, "MEAN_ANOMALY": 156.0929, "EPHEMERIS_TYPE": 0, "CLASSIFICATION_TYPE": "U", "NORAD_CAT_ID": 34413, "ELEMENT_SET_NO": 999, "REV_AT_EPOCH": 87024, "BSTAR": 0.0033499689, "MEAN_MOTION_DOT": 8.843e-05, "MEAN_MOTION_DDOT": 0}, "tle": {"line1": "1 34413U 93036RE  25339.29040170  .00008843  00000+0  33500-2 0  9996", "line2": "2 34413  74.0319 278.4055 0090734 356.2477 156.0929 14.28998160870240"}}, "geometry": {"type": "Point", "coordinates": [109.2445062351587, -35.712335037041164]}}, {"type": "Feature", "properties": {"norad_id": 34420, "name": "COSMOS 2251 DEB", "group": "cosmos-2251-debris", "lat": 56.96657597258796, "lon": 143.38422838178565, "alt_km": 736.1154256822774, "timestamp": "2025-12-05T20:43:02.447834+00:00", "meta": {"OBJECT_NAME": "COSMOS 2251 DEB", "OBJECT_ID": "1993-036RM", "EPOCH": "2025-12-05T04:20:24.580320", "MEAN_MOTION": 14.68261008, "ECCENTRICITY": 0.01069116, "INCLINATION": 74.0331, "RA_OF_ASC_NODE": 118.5794, "ARG_OF_PERICENTER": 241.4557, "MEAN_ANOMALY": 173.9014, "EPHEMERIS_TYPE": 0, "CLASSIFICATION_TYPE": "U", "NORAD_CAT_ID": 34420, "ELEMENT_SET_NO": 999, "REV_AT_EPOCH": 89659, "BSTAR": 0.00046288027, "MEAN_MOTION_DOT": 2.875e-05, "MEAN_MOTION_DDOT": 0}, "tle": {"line1": "1 34420U 93036RM  25339.18084005  .00002875  00000+0  46288-3 0  9994", "line2": "2 34420  74.0331 118.5794 0106911 241.4557 173.9014 14.68261008896592"}}, "geometry": {"type": "Point", "coordinates": [143.38422838178565, 56.96657597258796]}}, {"type": "Feature", "properties": {"norad_id": 34425, "name": "COSMOS 2251 DEB", "group": "cosmos-2251-debris", "lat": -55.24839671359633, "lon": 43.30163159557954, "alt_km": 697.9787459359322, "timestamp": "2025-12-05T20:43:02.447845+00:00", "meta": {"OBJECT_NAME": "COSMOS 2251 DEB", "OBJECT_ID": "1993-036RS", "EPOCH": "2025-12-05T06:12:23.798592", "MEAN_MOTION": 14.62057136, "ECCENTRICITY": 0.00253699, "INCLINATION": 74.0209, "RA_OF_ASC_NODE": 68.8545, "ARG_OF_PERICENTER": 197.0571, "MEAN_ANOMALY": 162.9746, "EPHEMERIS_TYPE": 0, "CLASSIFICATION_TYPE": "U", "NORAD_CAT_ID": 34425, "ELEMENT_SET_NO": 999, "REV_AT_EPOCH": 88631, "BSTAR": 0.0012799923, "MEAN_MOTION_DOT": 6.431e-05, "MEAN_MOTION_DDOT": 0}, "tle": {"line1": "1 34425U 93036RS  25339.25860878  .00006431  00000+0  12800-2 0  9991", "line2": "2 34425  74.0209  68.8545 0025369 197.0571 162.9746 14.62057136886319"}}, "geometry": {"type": "Point", "coordinates": [43.30163159557954, -55.24839671359633]}}, {"type": "Feature", "properties": {"norad_id": 34429, "name": "COSMOS 2251 DEB", "group": "cosmos-2251-debris", "lat": -52.5161377675204, "lon": 24.944249497931747, "alt_km": 461.30932710156685, "timestamp": "2025-12-05T20:43:02.447855+00:00", "meta": {"OBJECT_NAME": "COSMOS 2251 DEB", "OBJECT_ID": "1993-036RW", "EPOCH": "2025-12-04T23:55:25.095072", "MEAN_MOTION": 15.37797754, "ECCENTRICITY": 0.00055375, "INCLINATION": 73.9716, "RA_OF_ASC_NODE": 184.8007, "ARG_OF_PERICENTER": 31.6479, "MEAN_ANOMALY": 88.8662, "EPHEMERIS_TYPE": 0, "CLASSIFICATION_TYPE": "U", "NORAD_CAT_ID": 34429, "ELEMENT_SET_NO": 999, "REV_AT_EPOCH": 89329, "BSTAR": 0.0071490757, "MEAN_MOTION_DOT": 0.00275543, "MEAN_MOTION_DDOT": 0}, "tle": {"line1": "1 34429U 93036RW  25338.99681823  .00275543  00000+0  71491-2 0  9999", "line2": "2 34429  73.9716 184.8007 0005537  31.6479  88.8662 15.37797754893299"}}, "geometry": {"type": "Point", "coordinates": [24.944249497931747, -52.5161377675204]}}, {"type": "Feature", "properties": {"norad_id": 34430, "name": "COSMOS 2251 DEB", "group": "cosmos-2251-debris", "lat": -72.20965850214948, "lon": -106.97427273106146, "alt_km": 780.808003733926, "timestamp": "2025-12-05T20:43:02.447865+00:00", "meta": {"OBJECT_NAME": "COSMOS 2251 DEB", "OBJECT_ID": "1993-036RX", "EPOCH": "2025-12-05T01:04:57.683712", "MEAN_MOTION": 14.39594358, "ECCENTRICITY": 0.00599799, "INCLINATION": 74.051, "RA_OF_ASC_NODE": 317.5591, "ARG_OF_PERICENTER": 29.153, "MEAN_ANOMALY": 331.295, "EPHEMERIS_TYPE": 0, "CLASSIFICATION_TYPE": "U", "NORAD_CAT_ID": 34430, "ELEMENT_SET_NO": 999, "REV_AT_EPOCH": 87844, "BSTAR": 0.00085911842, "MEAN_MOTION_DOT": 2.716e-05, "MEAN_MOTION_DDOT": 0}, "tle": {"line1": "1 34430U 93036RX  25339.04511208  .00002716  00000+0  85912-3 0  9991", "line2": "2 34430  74.0510 317.5591 0059979  29.1530 331.2950 14.39594358878448"}}, "geometry": {"type": "Point", "coordinates": [-106.97427273106146, -72.20965850214948]}}, {"type": "Feature", "properties": {"norad_id": 34431, "name": "COSMOS 2251 DEB", "group": "cosmos-2251-debris", "lat": 73.96621161331262, "lon": -88.8754073292133, "alt_km": 785.6101629235282, "timestamp": "2025-12-05T20:43:02.447875+00:00", "meta": {"OBJECT_NAME": "COSMOS 2251 DEB", "OBJECT_ID": "1993-036RY", "EPOCH": "2025-12-05T00:08:13.166880", "MEAN_MOTION": 14.28738906, "ECCENTRICITY": 0.00686526, "INCLINATION": 74.0744, "RA_OF_ASC_NODE": 189.1981, "ARG_OF_PERICENTER": 176.979, "MEAN_ANOMALY": 183.1789, "EPHEMERIS_TYPE": 0, "CLASSIFICATION_TYPE": "U", "NORAD_CAT_ID": 34431, "ELEMENT_SET_NO": 999, "REV_AT_EPOCH": 87032, "BSTAR": 0.00098030087, "MEAN_MOTION_DOT": 2.506e-05, "MEAN_MOTION_DDOT": 0}, "tle": {"line1": "1 34431U 93036RY  25339.00570795  .00002506  00000+0  98030-3 0  9996", "line2": "2 34431  74.0744 189.1981 0068652 176.9790 183.1789 14.28738906870321"}}, "geometry": {"type": "Point", "coordinates": [-88.8754073292133, 73.96621161331262]}}]}